CCSDS_OMM_VERS = 2.0
CREATION_DATE  = 
ORIGINATOR     = 

OBJECT_NAME    = STARLINK-35691
OBJECT_ID      = 2025-257AA
CENTER_NAME    = EARTH
REF_FRAME      = TEME
TIME_SYSTEM    = UTC
MEAN_ELEMENT_THEORY = SGP/SGP4

EPOCH          = 2025-11-29T04:00:01.998720
MEAN_MOTION    = 15.49627336
ECCENTRICITY   = .0001259
INCLINATION    = 53.1592
RA_OF_ASC_NODE = 328.6650
ARG_OF_PERICENTER = 77.2757
MEAN_ANOMALY   = 21.7029

EPHEMERIS_TYPE = 0
CLASSIFICATION_TYPE = U
NORAD_CAT_ID   = 66404
ELEMENT_SET_NO = 999
REV_AT_EPOCH   = 431
BSTAR          = -.10063E-1
MEAN_MOTION_DOT = -.529701E-2
MEAN_MOTION_DDOT = 0

CCSDS_OMM_VERS = 2.0
CREATION_DATE  = 
ORIGINATOR     = 

OBJECT_NAME    = STARLINK-35683
OBJECT_ID      = 2025-257AB
CENTER_NAME    = EARTH
REF_FRAME      = TEME
TIME_SYSTEM    = UTC
MEAN_ELEMENT_THEORY = SGP/SGP4

EPOCH          = 2025-11-29T04:00:01.998720
MEAN_MOTION    = 15.49629827
ECCENTRICITY   = .0001223
INCLINATION    = 53.1593
RA_OF_ASC_NODE = 328.6605
ARG_OF_PERICENTER = 76.2130
MEAN_ANOMALY   = 24.6824

EPHEMERIS_TYPE = 0
CLASSIFICATION_TYPE = U
NORAD_CAT_ID   = 66405
ELEMENT_SET_NO = 999
REV_AT_EPOCH   = 415
BSTAR          = -.1015E-1
MEAN_MOTION_DOT = -.534052E-2
MEAN_MOTION_DDOT = 0

CCSDS_OMM_VERS = 2.0
CREATION_DATE  = 
ORIGINATOR     = 

OBJECT_NAME    = STARLINK-34840
OBJECT_ID      = 2025-257AC
CENTER_NAME    = EARTH
REF_FRAME      = TEME
TIME_SYSTEM    = UTC
MEAN_ELEMENT_THEORY = SGP/SGP4

EPOCH          = 2025-11-28T14:00:01.999872
MEAN_MOTION    = 15.52661855
ECCENTRICITY   = .00013073
INCLINATION    = 53.1591
RA_OF_ASC_NODE = 331.4468
ARG_OF_PERICENTER = 62.6579
MEAN_ANOMALY   = 24.2087

EPHEMERIS_TYPE = 0
CLASSIFICATION_TYPE = U
NORAD_CAT_ID   = 66406
ELEMENT_SET_NO = 999
REV_AT_EPOCH   = 416
BSTAR          = -.36406602E-1
MEAN_MOTION_DOT = -.2036299E-1
MEAN_MOTION_DDOT = 0

CCSDS_OMM_VERS = 2.0
CREATION_DATE  = 
ORIGINATOR     = 

OBJECT_NAME    = STARLINK-35686
OBJECT_ID      = 2025-257AD
CENTER_NAME    = EARTH
REF_FRAME      = TEME
TIME_SYSTEM    = UTC
MEAN_ELEMENT_THEORY = SGP/SGP4

EPOCH          = 2025-11-29T04:00:01.998720
MEAN_MOTION    = 15.49632382
ECCENTRICITY   = .0001493
INCLINATION    = 53.1593
RA_OF_ASC_NODE = 328.6568
ARG_OF_PERICENTER = 76.5461
MEAN_ANOMALY   = 26.2748

EPHEMERIS_TYPE = 0
CLASSIFICATION_TYPE = U
NORAD_CAT_ID   = 66407
ELEMENT_SET_NO = 999
REV_AT_EPOCH   = 431
BSTAR          = -.10336E-1
MEAN_MOTION_DOT = -.543245E-2
MEAN_MOTION_DDOT = 0

CCSDS_OMM_VERS = 2.0
CREATION_DATE  = 
ORIGINATOR     = 

OBJECT_NAME    = STARLINK-35679
OBJECT_ID      = 2025-257AE
CENTER_NAME    = EARTH
REF_FRAME      = TEME
TIME_SYSTEM    = UTC
MEAN_ELEMENT_THEORY = SGP/SGP4

EPOCH          = 2025-11-29T04:00:01.998720
MEAN_MOTION    = 15.49631657
ECCENTRICITY   = .0001403
INCLINATION    = 53.1593
RA_OF_ASC_NODE = 328.6542
ARG_OF_PERICENTER = 78.6738
MEAN_ANOMALY   = 26.0638

EPHEMERIS_TYPE = 0
CLASSIFICATION_TYPE = U
NORAD_CAT_ID   = 66408
ELEMENT_SET_NO = 999
REV_AT_EPOCH   = 431
BSTAR          = -.1031E-1
MEAN_MOTION_DOT = -.541969E-2
MEAN_MOTION_DDOT = 0

CCSDS_OMM_VERS = 2.0
CREATION_DATE  = 
ORIGINATOR     = 

OBJECT_NAME    = CHUTIAN-2 A
OBJECT_ID      = 2025-256A
CENTER_NAME    = EARTH
REF_FRAME      = TEME
TIME_SYSTEM    = UTC
MEAN_ELEMENT_THEORY = SGP/SGP4

EPOCH          = 2025-11-29T04:47:44.310624
MEAN_MOTION    = 14.49908925
ECCENTRICITY   = .0013048
INCLINATION    = 98.2780
RA_OF_ASC_NODE = 38.2003
ARG_OF_PERICENTER = 219.6488
MEAN_ANOMALY   = 140.3754

EPHEMERIS_TYPE = 0
CLASSIFICATION_TYPE = U
NORAD_CAT_ID   = 66409
ELEMENT_SET_NO = 999
REV_AT_EPOCH   = 291
BSTAR          = .24756E-4
MEAN_MOTION_DOT = .52E-6
MEAN_MOTION_DDOT = 0

CCSDS_OMM_VERS = 2.0
CREATION_DATE  = 
ORIGINATOR     = 

OBJECT_NAME    = CHUTIAN-2 B
OBJECT_ID      = 2025-256B
CENTER_NAME    = EARTH
REF_FRAME      = TEME
TIME_SYSTEM    = UTC
MEAN_ELEMENT_THEORY = SGP/SGP4

EPOCH          = 2025-11-29T04:35:32.093088
MEAN_MOTION    = 14.50996101
ECCENTRICITY   = .001307
INCLINATION    = 98.2810
RA_OF_ASC_NODE = 38.2171
ARG_OF_PERICENTER = 223.6576
MEAN_ANOMALY   = 136.3586

EPHEMERIS_TYPE = 0
CLASSIFICATION_TYPE = U
NORAD_CAT_ID   = 66410
ELEMENT_SET_NO = 999
REV_AT_EPOCH   = 291
BSTAR          = .18802E-3
MEAN_MOTION_DOT = .7E-5
MEAN_MOTION_DDOT = 0

CCSDS_OMM_VERS = 2.0
CREATION_DATE  = 
ORIGINATOR     = 

OBJECT_NAME    = ZK-1A R/B
OBJECT_ID      = 2025-256C
CENTER_NAME    = EARTH
REF_FRAME      = TEME
TIME_SYSTEM    = UTC
MEAN_ELEMENT_THEORY = SGP/SGP4

EPOCH          = 2025-11-20T17:22:35.449824
MEAN_MOTION    = 15.01236100
ECCENTRICITY   = .02323532
INCLINATION    = 98.3243
RA_OF_ASC_NODE = 30.9055
ARG_OF_PERICENTER = 318.4537
MEAN_ANOMALY   = 39.9225

EPHEMERIS_TYPE = 0
CLASSIFICATION_TYPE = U
NORAD_CAT_ID   = 66411
ELEMENT_SET_NO = 999
REV_AT_EPOCH   = 174
BSTAR          = .48987823E-3
MEAN_MOTION_DOT = .11214E-3
MEAN_MOTION_DDOT = 0

CCSDS_OMM_VERS = 2.0
CREATION_DATE  = 
ORIGINATOR     = 

OBJECT_NAME    = HULIANWANG DIGUI 13A
OBJECT_ID      = 2025-258A
CENTER_NAME    = EARTH
REF_FRAME      = TEME
TIME_SYSTEM    = UTC
MEAN_ELEMENT_THEORY = SGP/SGP4

EPOCH          = 2025-11-28T16:01:43.763232
MEAN_MOTION    = 14.23487329
ECCENTRICITY   = .00140374
INCLINATION    = 50.0036
RA_OF_ASC_NODE = 321.1935
ARG_OF_PERICENTER = 308.1677
MEAN_ANOMALY   = 51.7971

EPHEMERIS_TYPE = 0
CLASSIFICATION_TYPE = U
NORAD_CAT_ID   = 66412
ELEMENT_SET_NO = 999
REV_AT_EPOCH   = 265
BSTAR          = .23971134E-4
MEAN_MOTION_DOT = -.104E-5
MEAN_MOTION_DDOT = 0

CCSDS_OMM_VERS = 2.0
CREATION_DATE  = 
ORIGINATOR     = 

OBJECT_NAME    = HULIANWANG DIGUI 13B
OBJECT_ID      = 2025-258B
CENTER_NAME    = EARTH
REF_FRAME      = TEME
TIME_SYSTEM    = UTC
MEAN_ELEMENT_THEORY = SGP/SGP4

EPOCH          = 2025-11-28T16:12:43.250112
MEAN_MOTION    = 14.23478866
ECCENTRICITY   = .00133473
INCLINATION    = 50.0010
RA_OF_ASC_NODE = 321.2227
ARG_OF_PERICENTER = 308.4457
MEAN_ANOMALY   = 51.5258

EPHEMERIS_TYPE = 0
CLASSIFICATION_TYPE = U
NORAD_CAT_ID   = 66413
ELEMENT_SET_NO = 999
REV_AT_EPOCH   = 265
BSTAR          = -.1001427E-4
MEAN_MOTION_DOT = -.182E-5
MEAN_MOTION_DDOT = 0

CCSDS_OMM_VERS = 2.0
CREATION_DATE  = 
ORIGINATOR     = 

OBJECT_NAME    = HULIANWANG DIGUI 13C
OBJECT_ID      = 2025-258C
CENTER_NAME    = EARTH
REF_FRAME      = TEME
TIME_SYSTEM    = UTC
MEAN_ELEMENT_THEORY = SGP/SGP4

EPOCH          = 2025-11-28T16:08:17.916576
MEAN_MOTION    = 14.23504019
ECCENTRICITY   = .00135229
INCLINATION    = 50.0050
RA_OF_ASC_NODE = 321.2200
ARG_OF_PERICENTER = 306.6295
MEAN_ANOMALY   = 53.3374

EPHEMERIS_TYPE = 0
CLASSIFICATION_TYPE = U
NORAD_CAT_ID   = 66414
ELEMENT_SET_NO = 999
REV_AT_EPOCH   = 265
BSTAR          = .9661414E-5
MEAN_MOTION_DOT = -.137E-5
MEAN_MOTION_DDOT = 0

CCSDS_OMM_VERS = 2.0
CREATION_DATE  = 
ORIGINATOR     = 

OBJECT_NAME    = HULIANWANG DIGUI 13D
OBJECT_ID      = 2025-258D
CENTER_NAME    = EARTH
REF_FRAME      = TEME
TIME_SYSTEM    = UTC
MEAN_ELEMENT_THEORY = SGP/SGP4

EPOCH          = 2025-11-28T15:59:43.611936
MEAN_MOTION    = 14.23492000
ECCENTRICITY   = .00133237
INCLINATION    = 50.0052
RA_OF_ASC_NODE = 321.1861
ARG_OF_PERICENTER = 313.4120
MEAN_ANOMALY   = 46.5683

EPHEMERIS_TYPE = 0
CLASSIFICATION_TYPE = U
NORAD_CAT_ID   = 66415
ELEMENT_SET_NO = 999
REV_AT_EPOCH   = 265
BSTAR          = .53822099E-4
MEAN_MOTION_DOT = -.36E-6
MEAN_MOTION_DDOT = 0

