STARLINK-35691          
1 66404U 25257AA  25333.16668980 -.00529701  00000+0 -10063-1 0  9997
2 66404  53.1592 328.6650 0001259  77.2757  21.7029 15.49627336  4314
STARLINK-35683          
1 66405U 25257AB  25333.16668980 -.00534052  00000+0 -10150-1 0  9990
2 66405  53.1593 328.6605 0001223  76.2130  24.6824 15.49629827  4155
STARLINK-34840          
1 66406U 25257AC  25332.58335648 -.02036299  00000+0 -36407-1 0  9993
2 66406  53.1591 331.4468 0001307  62.6579  24.2087 15.52661855  4161
STARLINK-35686          
1 66407U 25257AD  25333.16668980 -.00543245  00000+0 -10336-1 0  9992
2 66407  53.1593 328.6568 0001493  76.5461  26.2748 15.49632382  4315
STARLINK-35679          
1 66408U 25257AE  25333.16668980 -.00541969  00000+0 -10310-1 0  9996
2 66408  53.1593 328.6542 0001403  78.6738  26.0638 15.49631657  4319
CHUTIAN-2 A             
1 66409U 25256A   25333.19981841  .00000052  00000+0  24756-4 0  9996
2 66409  98.2780  38.2003 0013048 219.6488 140.3754 14.49908925  2918
CHUTIAN-2 B             
1 66410U 25256B   25333.19134367  .00000700  00000+0  18802-3 0  9995
2 66410  98.2810  38.2171 0013070 223.6576 136.3586 14.50996101  2911
ZK-1A R/B               
1 66411U 25256C   25324.72402141  .00011214  00000+0  48988-3 0  9993
2 66411  98.3243  30.9055 0232353 318.4537  39.9225 15.01236100  1741
HULIANWANG DIGUI 13A    
1 66412U 25258A   25332.66786763 -.00000104  00000+0  23971-4 0  9996
2 66412  50.0036 321.1935 0014037 308.1677  51.7971 14.23487329  2652
HULIANWANG DIGUI 13B    
1 66413U 25258B   25332.67550058 -.00000182  00000+0 -10014-4 0  9995
2 66413  50.0010 321.2227 0013347 308.4457  51.5258 14.23478866  2654
HULIANWANG DIGUI 13C    
1 66414U 25258C   25332.67242959 -.00000137  00000+0  96614-5 0  9994
2 66414  50.0050 321.2200 0013522 306.6295  53.3374 14.23504019  2654
HULIANWANG DIGUI 13D    
1 66415U 25258D   25332.66647699 -.00000036  00000+0  53822-4 0  9995
2 66415  50.0052 321.1861 0013323 313.4120  46.5683 14.23492000  2654
